start=new Date('2023-05-22T00:00:00.000Z').valueOf();
sats=[{"REF_FRAME":"TEME","REV_AT_EPOCH":"10968","TLE_LINE1":"1 48666U 21044AE  23141.93198047  .00026761  00000-0  18098-2 0  9993","MEAN_MOTION":"15.06375610","MEAN_ELEMENT_THEORY":"SGP4","MEAN_ANOMALY":"276.6455","INCLINATION":"53.0548","PERIAPSIS":"546.202","ECCENTRICITY":"0.00015680","SITE":"AFETR","RA_OF_ASC_NODE":"23.4262","TIME_SYSTEM":"UTC","ARG_OF_PERICENTER":"83.4712","GP_ID":"232282926","NORAD_CAT_ID":"48666","FILE":"3914061","DECAY_DATE":null,"MEAN_MOTION_DOT":"0.00026761","LAUNCH_DATE":"2021-05-26","EPOCH":"2023-05-21T22:22:03.112608","RCS_SIZE":"LARGE","OBJECT_NAME":"STARLINK-2666","PERIOD":"95.594","CLASSIFICATION_TYPE":"U","OBJECT_TYPE":"PAYLOAD","APOAPSIS":"548.374","MEAN_MOTION_DDOT":"0.0000000000000","TLE_LINE2":"2 48666  53.0548  23.4262 0001568  83.4712 276.6455 15.06375610109684","COUNTRY_CODE":"US","BSTAR":"0.00180980000000","ELEMENT_SET_NO":"999","CENTER_NAME":"EARTH","EPHEMERIS_TYPE":"0","OBJECT_ID":"2021-044AE","SEMIMAJOR_AXIS":"6925.423"},{"EPHEMERIS_TYPE":"0","SEMIMAJOR_AXIS":"6925.395","OBJECT_ID":"2021-044AF","ELEMENT_SET_NO":"999","CENTER_NAME":"EARTH","COUNTRY_CODE":"US","TLE_LINE2":"2 48667  53.0547  23.9858 0001605  90.4212 269.6961 15.06385008109669","BSTAR":"0.00097421000000","CLASSIFICATION_TYPE":"U","PERIOD":"95.593","APOAPSIS":"548.371","MEAN_MOTION_DDOT":"0.0000000000000","OBJECT_TYPE":"PAYLOAD","RCS_SIZE":"LARGE","EPOCH":"2023-05-21T16:52:51.938688","OBJECT_NAME":"STARLINK-2735","LAUNCH_DATE":"2021-05-26","MEAN_MOTION_DOT":"0.00014253","FILE":"3914061","DECAY_DATE":null,"GP_ID":"232282676","NORAD_CAT_ID":"48667","TIME_SYSTEM":"UTC","ARG_OF_PERICENTER":"90.4212","ECCENTRICITY":"0.00016050","RA_OF_ASC_NODE":"23.9858","SITE":"AFETR","PERIAPSIS":"546.148","INCLINATION":"53.0547","MEAN_MOTION":"15.06385008","TLE_LINE1":"1 48667U 21044AF  23141.70337892  .00014253  00000-0  97421-3 0  9993","MEAN_ANOMALY":"269.6961","MEAN_ELEMENT_THEORY":"SGP4","REF_FRAME":"TEME","REV_AT_EPOCH":"10966"},{"ECCENTRICITY":"0.00007800","RA_OF_ASC_NODE":"23.7023","SITE":"AFETR","PERIAPSIS":"546.756","INCLINATION":"53.0566","MEAN_MOTION":"15.06373097","TLE_LINE1":"1 48668U 21044AG  23141.76603963  .00014119  00000-0  96554-3 0  9992","MEAN_ELEMENT_THEORY":"SGP4","MEAN_ANOMALY":"218.3011","REF_FRAME":"TEME","REV_AT_EPOCH":"10967","MEAN_MOTION_DOT":"0.00014119","FILE":"3914061","DECAY_DATE":null,"GP_ID":"232281925","NORAD_CAT_ID":"48668","TIME_SYSTEM":"UTC","ARG_OF_PERICENTER":"141.8033","CLASSIFICATION_TYPE":"U","PERIOD":"95.594","MEAN_MOTION_DDOT":"0.0000000000000","APOAPSIS":"547.836","OBJECT_TYPE":"PAYLOAD","RCS_SIZE":"LARGE","EPOCH":"2023-05-21T18:23:05.824032","OBJECT_NAME":"STARLINK-2738","LAUNCH_DATE":"2021-05-26","EPHEMERIS_TYPE":"0","SEMIMAJOR_AXIS":"6925.431","OBJECT_ID":"2021-044AG","ELEMENT_SET_NO":"999","CENTER_NAME":"EARTH","TLE_LINE2":"2 48668  53.0566  23.7023 0000780 141.8033 218.3011 15.06373097109671","COUNTRY_CODE":"US","BSTAR":"0.00096554000000"},{"PERIOD":"95.594","CLASSIFICATION_TYPE":"U","OBJECT_TYPE":"PAYLOAD","MEAN_MOTION_DDOT":"0.0000000000000","APOAPSIS":"547.753","EPOCH":"2023-05-21T23:04:25.984704","RCS_SIZE":"LARGE","OBJECT_NAME":"STARLINK-2707","LAUNCH_DATE":"2021-05-26","EPHEMERIS_TYPE":"0","OBJECT_ID":"2021-044AH","SEMIMAJOR_AXIS":"6925.438","ELEMENT_SET_NO":"999","CENTER_NAME":"EARTH","TLE_LINE2":"2 48669  53.0558  22.8251 0000650 110.4255 249.6804 15.06370849109691","COUNTRY_CODE":"US","BSTAR":"-0.00036575000000","ECCENTRICITY":"0.00006500","SITE":"AFETR","RA_OF_ASC_NODE":"22.8251","INCLINATION":"53.0558","PERIAPSIS":"546.853","TLE_LINE1":"1 48669U 21044AH  23141.96141186 -.00005720  00000-0 -36575-3 0  9996","MEAN_MOTION":"15.06370849","MEAN_ANOMALY":"249.6804","MEAN_ELEMENT_THEORY":"SGP4","REF_FRAME":"TEME","REV_AT_EPOCH":"10969","MEAN_MOTION_DOT":"-0.00005720","FILE":"3914061","DECAY_DATE":null,"GP_ID":"232282175","NORAD_CAT_ID":"48669","TIME_SYSTEM":"UTC","ARG_OF_PERICENTER":"110.4255"},{"MEAN_ELEMENT_THEORY":"SGP4","MEAN_ANOMALY":"305.6270","TLE_LINE1":"1 48670U 21044AJ  23141.95771339  .00021929  00000-0  14891-2 0  9999","MEAN_MOTION":"15.06335038","REV_AT_EPOCH":"10969","REF_FRAME":"TEME","SITE":"AFETR","RA_OF_ASC_NODE":"22.8424","ECCENTRICITY":"0.00013280","INCLINATION":"53.0553","PERIAPSIS":"546.493","NORAD_CAT_ID":"48670","GP_ID":"232282426","TIME_SYSTEM":"UTC","ARG_OF_PERICENTER":"54.4843","MEAN_MOTION_DOT":"0.00021929","DECAY_DATE":null,"FILE":"3914061","OBJECT_NAME":"STARLINK-2763","EPOCH":"2023-05-21T22:59:06.436896","RCS_SIZE":"LARGE","LAUNCH_DATE":"2021-05-26","OBJECT_TYPE":"PAYLOAD","APOAPSIS":"548.332","MEAN_MOTION_DDOT":"0.0000000000000","PERIOD":"95.596","CLASSIFICATION_TYPE":"U","BSTAR":"0.00148910000000","TLE_LINE2":"2 48670  53.0553  22.8424 0001328  54.4843 305.6270 15.06335038109694","COUNTRY_CODE":"US","OBJECT_ID":"2021-044AJ","SEMIMAJOR_AXIS":"6925.548","EPHEMERIS_TYPE":"0","CENTER_NAME":"EARTH","ELEMENT_SET_NO":"999"},{"SEMIMAJOR_AXIS":"6925.439","OBJECT_ID":"2021-044AK","EPHEMERIS_TYPE":"0","CENTER_NAME":"EARTH","ELEMENT_SET_NO":"999","BSTAR":"0.00111510000000","TLE_LINE2":"2 48671  53.0555  23.4512 0000815 187.0394 173.0584 15.06370652109670","COUNTRY_CODE":"US","APOAPSIS":"547.868","MEAN_MOTION_DDOT":"0.0000000000000","OBJECT_TYPE":"PAYLOAD","CLASSIFICATION_TYPE":"U","PERIOD":"95.594","OBJECT_NAME":"STARLINK-2745","RCS_SIZE":"LARGE","EPOCH":"2023-05-21T19:42:42.448032","LAUNCH_DATE":"2021-05-26","MEAN_MOTION_DOT":"0.00016354","DECAY_DATE":null,"FILE":"3914061","NORAD_CAT_ID":"48671","GP_ID":"232283177","ARG_OF_PERICENTER":"187.0394","TIME_SYSTEM":"UTC","RA_OF_ASC_NODE":"23.4512","SITE":"AFETR","ECCENTRICITY":"0.00008150","PERIAPSIS":"546.739","INCLINATION":"53.0555","MEAN_ANOMALY":"173.0584","MEAN_ELEMENT_THEORY":"SGP4","MEAN_MOTION":"15.06370652","TLE_LINE1":"1 48671U 21044AK  23141.82132463  .00016354  00000-0  11151-2 0  9997","REV_AT_EPOCH":"10967","REF_FRAME":"TEME"},{"OBJECT_TYPE":"PAYLOAD","APOAPSIS":"548.272","MEAN_MOTION_DDOT":"0.0000000000000","PERIOD":"95.595","CLASSIFICATION_TYPE":"U","OBJECT_NAME":"STARLINK-2705","EPOCH":"2023-05-21T22:48:29.250720","RCS_SIZE":"LARGE","LAUNCH_DATE":"2021-05-26","OBJECT_ID":"2021-044AL","SEMIMAJOR_AXIS":"6925.501","EPHEMERIS_TYPE":"0","CENTER_NAME":"EARTH","ELEMENT_SET_NO":"999","BSTAR":"0.00054021000000","TLE_LINE2":"2 48672  53.0552  22.8728 0001308 117.8467 242.2654 15.06350365109698","COUNTRY_CODE":"US","SITE":"AFETR","RA_OF_ASC_NODE":"22.8728","ECCENTRICITY":"0.00013080","INCLINATION":"53.0552","PERIAPSIS":"546.460","MEAN_ANOMALY":"242.2654","MEAN_ELEMENT_THEORY":"SGP4","TLE_LINE1":"1 48672U 21044AL  23141.95033855  .00007763  00000-0  54021-3 0  9995","MEAN_MOTION":"15.06350365","REV_AT_EPOCH":"10969","REF_FRAME":"TEME","MEAN_MOTION_DOT":"0.00007763","DECAY_DATE":null,"FILE":"3914061","NORAD_CAT_ID":"48672","GP_ID":"232281425","ARG_OF_PERICENTER":"117.8467","TIME_SYSTEM":"UTC"},{"OBJECT_TYPE":"PAYLOAD","APOAPSIS":"548.205","MEAN_MOTION_DDOT":"0.0000000000000","PERIOD":"95.594","CLASSIFICATION_TYPE":"U","OBJECT_NAME":"STARLINK-2711","EPOCH":"2023-05-21T22:43:11.150976","RCS_SIZE":"LARGE","LAUNCH_DATE":"2021-05-26","OBJECT_ID":"2021-044AM","SEMIMAJOR_AXIS":"6925.441","EPHEMERIS_TYPE":"0","CENTER_NAME":"EARTH","ELEMENT_SET_NO":"999","BSTAR":"0.00173450000000","COUNTRY_CODE":"US","TLE_LINE2":"2 48673  53.0547  22.8931 0001299 120.7921 239.3196 15.06369975109691","SITE":"AFETR","RA_OF_ASC_NODE":"22.8931","ECCENTRICITY":"0.00012990","INCLINATION":"53.0547","PERIAPSIS":"546.406","MEAN_ELEMENT_THEORY":"SGP4","MEAN_ANOMALY":"239.3196","TLE_LINE1":"1 48673U 21044AM  23141.94665684  .00025627  00000-0  17345-2 0  9992","MEAN_MOTION":"15.06369975","REV_AT_EPOCH":"10969","REF_FRAME":"TEME","MEAN_MOTION_DOT":"0.00025627","DECAY_DATE":null,"FILE":"3914061","NORAD_CAT_ID":"48673","GP_ID":"232281675","ARG_OF_PERICENTER":"120.7921","TIME_SYSTEM":"UTC"},{"GP_ID":"232282927","NORAD_CAT_ID":"48674","TIME_SYSTEM":"UTC","ARG_OF_PERICENTER":"81.7013","MEAN_MOTION_DOT":"0.00027095","FILE":"3914061","DECAY_DATE":null,"TLE_LINE1":"1 48674U 21044AN  23141.94203205  .00027095  00000-0  18320-2 0  9995","MEAN_MOTION":"15.06376724","MEAN_ANOMALY":"278.4288","MEAN_ELEMENT_THEORY":"SGP4","REF_FRAME":"TEME","REV_AT_EPOCH":"10969","ECCENTRICITY":"0.00027530","SITE":"AFETR","RA_OF_ASC_NODE":"22.9016","INCLINATION":"53.0558","PERIAPSIS":"545.378","TLE_LINE2":"2 48674  53.0558  22.9016 0002753  81.7013 278.4288 15.06376724109699","COUNTRY_CODE":"US","BSTAR":"0.00183200000000","EPHEMERIS_TYPE":"0","OBJECT_ID":"2021-044AN","SEMIMAJOR_AXIS":"6925.420","ELEMENT_SET_NO":"999","CENTER_NAME":"EARTH","EPOCH":"2023-05-21T22:36:31.569120","RCS_SIZE":"LARGE","OBJECT_NAME":"STARLINK-2712","LAUNCH_DATE":"2021-05-26","PERIOD":"95.594","CLASSIFICATION_TYPE":"U","OBJECT_TYPE":"PAYLOAD","APOAPSIS":"549.191","MEAN_MOTION_DDOT":"0.0000000000000"},{"REF_FRAME":"TEME","REV_AT_EPOCH":"10969","TLE_LINE1":"1 48675U 21044AP  23141.93928871  .00017744  00000-0  12087-2 0  9992","MEAN_MOTION":"15.06351665","MEAN_ELEMENT_THEORY":"SGP4","MEAN_ANOMALY":"273.2952","INCLINATION":"53.0539","PERIAPSIS":"546.189","ECCENTRICITY":"0.00016940","SITE":"AFETR","RA_OF_ASC_NODE":"22.9214","ARG_OF_PERICENTER":"86.8231","TIME_SYSTEM":"UTC","GP_ID":"232282677","NORAD_CAT_ID":"48675","FILE":"3914061","DECAY_DATE":null,"MEAN_MOTION_DOT":"0.00017744","LAUNCH_DATE":"2021-05-26","EPOCH":"2023-05-21T22:32:34.544544","RCS_SIZE":"LARGE","OBJECT_NAME":"STARLINK-2737","PERIOD":"95.595","CLASSIFICATION_TYPE":"U","OBJECT_TYPE":"PAYLOAD","APOAPSIS":"548.535","MEAN_MOTION_DDOT":"0.0000000000000","TLE_LINE2":"2 48675  53.0539  22.9214 0001694  86.8231 273.2952 15.06351665109698","COUNTRY_CODE":"US","BSTAR":"0.00120870000000","ELEMENT_SET_NO":"999","CENTER_NAME":"EARTH","EPHEMERIS_TYPE":"0","OBJECT_ID":"2021-044AP","SEMIMAJOR_AXIS":"6925.497"}];
